SAPPHIRE                
1 39088U 13009C   26095.10016833  .00000202  00000+0  85577-4 0  9994
2 39088  98.4242 276.2957 0012341 105.4599 254.7951 14.35220498686091
PRAETORIAN SDA_602      
1 65565U 25203A   26092.92938346 -.00022850  00000+0 -20589-1 0  9995
2 65565  81.2997  80.4757 0004925  47.0603 313.0966 13.84155046 28281
PRAETORIAN SDA_603      
1 65566U 25203B   26095.24571630  .00000263  00000+0  22609-3 0  9992
2 65566  81.3006  78.1951 0010405  36.3577 323.8285 13.83896542 28617
PRAETORIAN SDA_604      
1 65567U 25203C   26095.29247874  .00000071  00000+0  54273-4 0  9998
2 65567  81.3024  78.4528 0006513  46.4127 313.7568 13.83037671 28600
PRAETORIAN SDA_605      
1 65568U 25203D   26094.04865298  .00000084  00000+0  65775-4 0  9990
2 65568  81.2987  79.3378 0009076  36.1621 324.0147 13.83532328 28442
PRAETORIAN SDA_606      
1 65569U 25203E   26095.19130106  .00000071  00000+0  53687-4 0  9996
2 65569  81.3025  78.4802 0006719  38.0203 322.1426 13.83531691 28594
PRAETORIAN SDA_607      
1 65570U 25203F   26094.08567064 -.00005653  00000+0 -50729-2 0  9997
2 65570  81.2994  79.2728 0009740  39.0961 321.0898 13.84343348 28452
PRAETORIAN SDA_608      
1 65571U 25203G   26095.19489694  .00000079  00000+0  60676-4 0  9992
2 65571  81.2977  78.3778 0006947  45.2547 314.9174 13.83890419 28592
PRAETORIAN SDA_609      
1 65572U 25203H   26095.29650292  .00000257  00000+0  21960-3 0  9998
2 65572  81.3021  78.2862 0007738  37.9555 322.2145 13.84301213 28616
PRAETORIAN SDA_610      
1 65573U 25203J   26094.96116343  .00000053  00000+0  37346-4 0  9996
2 65573  81.2978  78.5589 0007436  42.0653 318.1073 13.83913151 28564
PRAETORIAN SDA_611      
1 65574U 25203K   26095.29247798  .00000059  00000+0  42640-4 0  9992
2 65574  81.2980  78.3520 0006675  48.7346 311.4384 13.83299329 28607
PRAETORIAN SDA_612      
1 65575U 25203L   26095.08406270  .00000246  00000+0  20687-3 0  9996
2 65575  81.3000  78.3110 0010102  36.9878 323.1974 13.85028941 28591
PRAETORIAN SDA_613      
1 65576U 25203M   26095.20434397  .00000075  00000+0  57407-4 0  9993
2 65576  81.2970  78.3872 0006647  42.9369 317.2304 13.82945200 28597
PRAETORIAN SDA_614      
1 65577U 25203N   26095.27629168  .00000082  00000+0  62642-4 0  9998
2 65577  81.2984  78.1922 0007976  36.7652 323.4051 13.84769192 28627
PRAETORIAN SDA_615      
1 65578U 25203P   26095.23515088  .00000210  00000+0  17720-3 0  9999
2 65578  81.2996  78.1485 0009836  35.4635 324.7174 13.84425728 28612
PRAETORIAN SDA_616      
1 65579U 25203Q   26095.29144246  .00000244  00000+0  21119-3 0  9994
2 65579  81.3033  78.4537 0006427  47.9143 312.2559 13.83314813 28601
