[{"OBJECT_NAME":"SAPPHIRE","OBJECT_ID":"2013-009C","EPOCH":"2026-04-05T02:24:14.543712","MEAN_MOTION":14.35220498,"ECCENTRICITY":0.00123419,"INCLINATION":98.4242,"RA_OF_ASC_NODE":276.2957,"ARG_OF_PERICENTER":105.4599,"MEAN_ANOMALY":254.7951,"EPHEMERIS_TYPE":0,"CLASSIFICATION_TYPE":"U","NORAD_CAT_ID":39088,"ELEMENT_SET_NO":999,"REV_AT_EPOCH":68609,"BSTAR":8.5577174e-5,"MEAN_MOTION_DOT":2.02e-6,"MEAN_MOTION_DDOT":0},{"OBJECT_NAME":"PRAETORIAN SDA_602","OBJECT_ID":"2025-203A","EPOCH":"2026-04-02T22:18:18.730944","MEAN_MOTION":13.84155046,"ECCENTRICITY":0.00049253,"INCLINATION":81.2997,"RA_OF_ASC_NODE":80.4757,"ARG_OF_PERICENTER":47.0603,"MEAN_ANOMALY":313.0966,"EPHEMERIS_TYPE":0,"CLASSIFICATION_TYPE":"U","NORAD_CAT_ID":65565,"ELEMENT_SET_NO":999,"REV_AT_EPOCH":2828,"BSTAR":-0.020589454,"MEAN_MOTION_DOT":-0.0002285,"MEAN_MOTION_DDOT":0},{"OBJECT_NAME":"PRAETORIAN SDA_603","OBJECT_ID":"2025-203B","EPOCH":"2026-04-05T05:53:49.888320","MEAN_MOTION":13.83896542,"ECCENTRICITY":0.00104051,"INCLINATION":81.3006,"RA_OF_ASC_NODE":78.1951,"ARG_OF_PERICENTER":36.3577,"MEAN_ANOMALY":323.8285,"EPHEMERIS_TYPE":0,"CLASSIFICATION_TYPE":"U","NORAD_CAT_ID":65566,"ELEMENT_SET_NO":999,"REV_AT_EPOCH":2861,"BSTAR":0.00022609008,"MEAN_MOTION_DOT":2.63e-6,"MEAN_MOTION_DDOT":0},{"OBJECT_NAME":"PRAETORIAN SDA_604","OBJECT_ID":"2025-203C","EPOCH":"2026-04-05T07:01:10.163136","MEAN_MOTION":13.83037671,"ECCENTRICITY":0.00065134,"INCLINATION":81.3024,"RA_OF_ASC_NODE":78.4528,"ARG_OF_PERICENTER":46.4127,"MEAN_ANOMALY":313.7568,"EPHEMERIS_TYPE":0,"CLASSIFICATION_TYPE":"U","NORAD_CAT_ID":65567,"ELEMENT_SET_NO":999,"REV_AT_EPOCH":2860,"BSTAR":5.4273094e-5,"MEAN_MOTION_DOT":7.1e-7,"MEAN_MOTION_DDOT":0},{"OBJECT_NAME":"PRAETORIAN SDA_605","OBJECT_ID":"2025-203D","EPOCH":"2026-04-04T01:10:03.617472","MEAN_MOTION":13.83532328,"ECCENTRICITY":0.00090765,"INCLINATION":81.2987,"RA_OF_ASC_NODE":79.3378,"ARG_OF_PERICENTER":36.1621,"MEAN_ANOMALY":324.0147,"EPHEMERIS_TYPE":0,"CLASSIFICATION_TYPE":"U","NORAD_CAT_ID":65568,"ELEMENT_SET_NO":999,"REV_AT_EPOCH":2844,"BSTAR":6.5775386e-5,"MEAN_MOTION_DOT":8.4e-7,"MEAN_MOTION_DDOT":0},{"OBJECT_NAME":"PRAETORIAN SDA_606","OBJECT_ID":"2025-203E","EPOCH":"2026-04-05T04:35:28.411584","MEAN_MOTION":13.83531691,"ECCENTRICITY":0.00067194,"INCLINATION":81.3025,"RA_OF_ASC_NODE":78.4802,"ARG_OF_PERICENTER":38.0203,"MEAN_ANOMALY":322.1426,"EPHEMERIS_TYPE":0,"CLASSIFICATION_TYPE":"U","NORAD_CAT_ID":65569,"ELEMENT_SET_NO":999,"REV_AT_EPOCH":2859,"BSTAR":5.3686744e-5,"MEAN_MOTION_DOT":7.1e-7,"MEAN_MOTION_DDOT":0},{"OBJECT_NAME":"PRAETORIAN SDA_607","OBJECT_ID":"2025-203F","EPOCH":"2026-04-04T02:03:21.943296","MEAN_MOTION":13.84343348,"ECCENTRICITY":0.00097402,"INCLINATION":81.2994,"RA_OF_ASC_NODE":79.2728,"ARG_OF_PERICENTER":39.0961,"MEAN_ANOMALY":321.0898,"EPHEMERIS_TYPE":0,"CLASSIFICATION_TYPE":"U","NORAD_CAT_ID":65570,"ELEMENT_SET_NO":999,"REV_AT_EPOCH":2845,"BSTAR":-0.0050729237,"MEAN_MOTION_DOT":-5.653e-5,"MEAN_MOTION_DDOT":0},{"OBJECT_NAME":"PRAETORIAN SDA_608","OBJECT_ID":"2025-203G","EPOCH":"2026-04-05T04:40:39.095616","MEAN_MOTION":13.83890419,"ECCENTRICITY":0.00069477,"INCLINATION":81.2977,"RA_OF_ASC_NODE":78.3778,"ARG_OF_PERICENTER":45.2547,"MEAN_ANOMALY":314.9174,"EPHEMERIS_TYPE":0,"CLASSIFICATION_TYPE":"U","NORAD_CAT_ID":65571,"ELEMENT_SET_NO":999,"REV_AT_EPOCH":2859,"BSTAR":6.0675996e-5,"MEAN_MOTION_DOT":7.9e-7,"MEAN_MOTION_DDOT":0},{"OBJECT_NAME":"PRAETORIAN SDA_609","OBJECT_ID":"2025-203H","EPOCH":"2026-04-05T07:06:57.852288","MEAN_MOTION":13.84301213,"ECCENTRICITY":0.0007738,"INCLINATION":81.3021,"RA_OF_ASC_NODE":78.2862,"ARG_OF_PERICENTER":37.9555,"MEAN_ANOMALY":322.2145,"EPHEMERIS_TYPE":0,"CLASSIFICATION_TYPE":"U","NORAD_CAT_ID":65572,"ELEMENT_SET_NO":999,"REV_AT_EPOCH":2861,"BSTAR":0.00021960038,"MEAN_MOTION_DOT":2.57e-6,"MEAN_MOTION_DDOT":0},{"OBJECT_NAME":"PRAETORIAN SDA_610","OBJECT_ID":"2025-203J","EPOCH":"2026-04-04T23:04:04.520352","MEAN_MOTION":13.83913151,"ECCENTRICITY":0.0007436,"INCLINATION":81.2978,"RA_OF_ASC_NODE":78.5589,"ARG_OF_PERICENTER":42.0653,"MEAN_ANOMALY":318.1073,"EPHEMERIS_TYPE":0,"CLASSIFICATION_TYPE":"U","NORAD_CAT_ID":65573,"ELEMENT_SET_NO":999,"REV_AT_EPOCH":2856,"BSTAR":3.7346344e-5,"MEAN_MOTION_DOT":5.3e-7,"MEAN_MOTION_DDOT":0},{"OBJECT_NAME":"PRAETORIAN SDA_611","OBJECT_ID":"2025-203K","EPOCH":"2026-04-05T07:01:10.097472","MEAN_MOTION":13.83299329,"ECCENTRICITY":0.00066755,"INCLINATION":81.298,"RA_OF_ASC_NODE":78.352,"ARG_OF_PERICENTER":48.7346,"MEAN_ANOMALY":311.4384,"EPHEMERIS_TYPE":0,"CLASSIFICATION_TYPE":"U","NORAD_CAT_ID":65574,"ELEMENT_SET_NO":999,"REV_AT_EPOCH":2860,"BSTAR":4.2639627e-5,"MEAN_MOTION_DOT":5.9e-7,"MEAN_MOTION_DDOT":0},{"OBJECT_NAME":"PRAETORIAN SDA_612","OBJECT_ID":"2025-203L","EPOCH":"2026-04-05T02:01:03.017280","MEAN_MOTION":13.85028941,"ECCENTRICITY":0.00101027,"INCLINATION":81.3,"RA_OF_ASC_NODE":78.311,"ARG_OF_PERICENTER":36.9878,"MEAN_ANOMALY":323.1974,"EPHEMERIS_TYPE":0,"CLASSIFICATION_TYPE":"U","NORAD_CAT_ID":65575,"ELEMENT_SET_NO":999,"REV_AT_EPOCH":2859,"BSTAR":0.00020687384,"MEAN_MOTION_DOT":2.46e-6,"MEAN_MOTION_DDOT":0},{"OBJECT_NAME":"PRAETORIAN SDA_613","OBJECT_ID":"2025-203M","EPOCH":"2026-04-05T04:54:15.319008","MEAN_MOTION":13.829452,"ECCENTRICITY":0.0006647,"INCLINATION":81.297,"RA_OF_ASC_NODE":78.3872,"ARG_OF_PERICENTER":42.9369,"MEAN_ANOMALY":317.2304,"EPHEMERIS_TYPE":0,"CLASSIFICATION_TYPE":"U","NORAD_CAT_ID":65576,"ELEMENT_SET_NO":999,"REV_AT_EPOCH":2859,"BSTAR":5.7406535e-5,"MEAN_MOTION_DOT":7.5e-7,"MEAN_MOTION_DDOT":0},{"OBJECT_NAME":"PRAETORIAN SDA_614","OBJECT_ID":"2025-203N","EPOCH":"2026-04-05T06:37:51.601152","MEAN_MOTION":13.84769192,"ECCENTRICITY":0.00079767,"INCLINATION":81.2984,"RA_OF_ASC_NODE":78.1922,"ARG_OF_PERICENTER":36.7652,"MEAN_ANOMALY":323.4051,"EPHEMERIS_TYPE":0,"CLASSIFICATION_TYPE":"U","NORAD_CAT_ID":65577,"ELEMENT_SET_NO":999,"REV_AT_EPOCH":2862,"BSTAR":6.2641952e-5,"MEAN_MOTION_DOT":8.2e-7,"MEAN_MOTION_DDOT":0},{"OBJECT_NAME":"PRAETORIAN SDA_615","OBJECT_ID":"2025-203P","EPOCH":"2026-04-05T05:38:37.036032","MEAN_MOTION":13.84425728,"ECCENTRICITY":0.00098369,"INCLINATION":81.2996,"RA_OF_ASC_NODE":78.1485,"ARG_OF_PERICENTER":35.4635,"MEAN_ANOMALY":324.7174,"EPHEMERIS_TYPE":0,"CLASSIFICATION_TYPE":"U","NORAD_CAT_ID":65578,"ELEMENT_SET_NO":999,"REV_AT_EPOCH":2861,"BSTAR":0.00017719535,"MEAN_MOTION_DOT":2.1e-6,"MEAN_MOTION_DDOT":0},{"OBJECT_NAME":"PRAETORIAN SDA_616","OBJECT_ID":"2025-203Q","EPOCH":"2026-04-05T06:59:40.628544","MEAN_MOTION":13.83314813,"ECCENTRICITY":0.00064277,"INCLINATION":81.3033,"RA_OF_ASC_NODE":78.4537,"ARG_OF_PERICENTER":47.9143,"MEAN_ANOMALY":312.2559,"EPHEMERIS_TYPE":0,"CLASSIFICATION_TYPE":"U","NORAD_CAT_ID":65579,"ELEMENT_SET_NO":999,"REV_AT_EPOCH":2860,"BSTAR":0.00021119411,"MEAN_MOTION_DOT":2.44e-6,"MEAN_MOTION_DDOT":0}]
